[{"OBJECT_NAME":"STARLINK-5925","OBJECT_ID":"2023-037AH","EPOCH":"2026-03-09T23:11:40.361568","MEAN_MOTION":14.983322,"ECCENTRICITY":0.00028532,"INCLINATION":69.9988,"RA_OF_ASC_NODE":283.678,"ARG_OF_PERICENTER":265.9401,"MEAN_ANOMALY":94.1432,"EPHEMERIS_TYPE":0,"CLASSIFICATION_TYPE":"U","NORAD_CAT_ID":55945,"ELEMENT_SET_NO":999,"REV_AT_EPOCH":16402,"BSTAR":-1.0373974e-5,"MEAN_MOTION_DOT":-2.17e-6,"MEAN_MOTION_DDOT":0},{"OBJECT_NAME":"CZ-2D DEB","OBJECT_ID":"2017-060B","EPOCH":"2026-03-09T14:15:36.855648","MEAN_MOTION":14.99543568,"ECCENTRICITY":0.002893,"INCLINATION":97.5408,"RA_OF_ASC_NODE":90.0945,"ARG_OF_PERICENTER":284.1616,"MEAN_ANOMALY":75.6394,"EPHEMERIS_TYPE":0,"CLASSIFICATION_TYPE":"U","NORAD_CAT_ID":44609,"ELEMENT_SET_NO":999,"REV_AT_EPOCH":45025,"BSTAR":0.00057261,"MEAN_MOTION_DOT":7.042e-5,"MEAN_MOTION_DDOT":0}]
